line1,line2,validFromUtcTime
1 00000U 00000E   26001.00000000  .00000000  00000-0  27772-4 0    01,2 00000  88.8750  60.3318 0010062 270.0216  75.0527 13.55302351    00,2026-01-01T00:00:00Z
1 00000U 00000E   26002.00000000  .00000000  00000-0  27772-4 0    02,2 00000  88.8750  60.2174 0010062 267.1117 274.1397 13.55302389    04,2026-01-02T00:00:00Z
